[Satellite]
VERSION=1.1
NAME=GPS BIII-1  (PRN 04)
NICKNAME=GPS BIII-1  (PRN 04)
TLE1=1 43873U 18109A   22341.00505889  .00000048  00000+0  00000+0 0  9991
TLE2=2 43873  55.1249 143.0823 0022220 187.6035  44.3382  2.00556826 29180
STATUS=0
